{"lat":49.2843841,"lon":-123.1088901,"amenity":"clock","tags":{"wheelchair":"yes","addr:housenumber":"305","historic":"monument","visibility":"street","display":"analog","tourism":"attraction","addr:street":"Water Street","wikipedia":"en:Steam clock#Gastown steam clock","wikidata":"Q477663","support":"ground"},"name":"Gastown Steam Clock"}
{"lat":49.2806911,"lon":-123.1125574,"amenity":"theatre","tags":{"addr:housenumber":"600","addr:street":"Hamilton Street","wikidata":"Q7914233"},"name":"Vancouver Playhouse"}
{"lat":49.2787678,"lon":-123.1092628,"amenity":"food_court","tags":{"wheelchair":"yes"},"name":"Costco Food Court"}
{"lat":49.2782799,"lon":-123.1211851,"amenity":"arts_centre","tags":{"wheelchair":"yes","addr:housenumber":"555","website":"https:\/\/www.contemporaryartgallery.ca\/","phone":"+1-604-681-2700","opening_hours":"Tu-Su 12:00-18:00","addr:street":"Nelson Street","wikidata":"Q5164961","addr:city":"Vancouver"},"name":"Contemporary Art Gallery"}
{"lat":49.2786691,"lon":-123.1264603,"amenity":"cinema","tags":{"addr:housenumber":"1131","website":"http:\/\/www.thecinematheque.ca\/","internet_access":"wlan","old_name":"Pacific Cinematheque","phone":"+1-604-688-3456","addr:street":"Howe Street","addr:postcode":"V6Z 2L7","wikidata":"Q7122345"},"name":"The Cinematheque"}
{"lat":49.2883318,"lon":-123.1125685,"amenity":"conference_centre","tags":{"addr:housenumber":"999","website":"https:\/\/www.vancouverconventioncentre.com\/","name:en":"Vancouver Convention Centre East","addr:street":"Canada Place","phone":"+1-604-689-8232"},"name":"Vancouver Convention Centre East"}
{"lat":49.2905053,"lon":-123.13656,"amenity":"library","tags":{"wheelchair":"yes","addr:housenumber":"870","website":"http:\/\/www.vpl.ca\/branches\/details\/joe_fortes_branch","internet_access":"wlan","phone":"+1-604-665-3972","opening_hours":"Mo, Tu, Th 10:00-21:00; We, Fr 10:00-18:00; Sa 10:00-17:00; Su 13:00-17:00","addr:street":"Denman Street"},"name":"VPL Joe Fortes Branch"}